{
  "type": "FeatureCollection",
  "features": [
    {
      "type": "Feature",
      "properties": {
        "norad_id": 24876,
        "name": "GPS BIIR-2  (PRN 13)",
        "group": "gps-ops",
        "lat": -19.782304722528234,
        "lon": 91.86653134979072,
        "alt_km": 20142.63548401899,
        "timestamp": "2025-12-10T04:57:29.876666+00:00",
        "meta_object_name": "GPS BIIR-2  (PRN 13)",
        "meta_object_id": "1997-035A",
        "meta_epoch": "2025-12-09T17:47:19.153824",
        "meta_mean_motion": 2.00563565,
        "meta_eccentricity": 0.0096748,
        "meta_inclination": 55.8939,
        "meta_ra_of_asc_node": 105.9862,
        "meta_arg_of_pericenter": 57.0132,
        "meta_mean_anomaly": 303.8899,
        "meta_ephemeris_type": 0,
        "meta_classification_type": "U",
        "meta_norad_cat_id": 24876,
        "meta_element_set_no": 999,
        "meta_rev_at_epoch": 20815,
        "meta_bstar": 0,
        "meta_mean_motion_dot": 2.2e-07,
        "meta_mean_motion_ddot": 0,
        "tle_line1": "1 24876U 97035A   25343.74119391  .00000022  00000+0  00000+0 0  9995",
        "tle_line2": "2 24876  55.8939 105.9862 0096748  57.0132 303.8899  2.00563565208159"
      },
      "geometry": {
        "type": "Point",
        "coordinates": [
          91.86653134979072,
          -19.782304722528234
        ]
      }
    },
    {
      "type": "Feature",
      "properties": {
        "norad_id": 26360,
        "name": "GPS BIIR-4  (PRN 20)",
        "group": "gps-ops",
        "lat": 49.81046129369123,
        "lon": 82.8101628144417,
        "alt_km": 20278.527380891108,
        "timestamp": "2025-12-10T04:57:29.876693+00:00",
        "meta_object_name": "GPS BIIR-4  (PRN 20)",
        "meta_object_id": "2000-025A",
        "meta_epoch": "2025-12-09T20:20:35.473056",
        "meta_mean_motion": 2.00567878,
        "meta_eccentricity": 0.0038854,
        "meta_inclination": 55.0435,
        "meta_ra_of_asc_node": 26.9548,
        "meta_arg_of_pericenter": 241.7187,
        "meta_mean_anomaly": 287.9405,
        "meta_ephemeris_type": 0,
        "meta_classification_type": "U",
        "meta_norad_cat_id": 26360,
        "meta_element_set_no": 999,
        "meta_rev_at_epoch": 18747,
        "meta_bstar": 0,
        "meta_mean_motion_dot": -9.5e-07,
        "meta_mean_motion_ddot": 0,
        "tle_line1": "1 26360U 00025A   25343.84763279 -.00000095  00000+0  00000+0 0  9990",
        "tle_line2": "2 26360  55.0435  26.9548 0038854 241.7187 287.9405  2.00567878187478"
      },
      "geometry": {
        "type": "Point",
        "coordinates": [
          82.8101628144417,
          49.81046129369123
        ]
      }
    },
    {
      "type": "Feature",
      "properties": {
        "norad_id": 26407,
        "name": "GPS BIIR-5  (PRN 22)",
        "group": "gps-ops",
        "lat": -54.82106362889233,
        "lon": 128.49798339932065,
        "alt_km": 19909.579486877512,
        "timestamp": "2025-12-10T04:57:29.876709+00:00",
        "meta_object_name": "GPS BIIR-5  (PRN 22)",
        "meta_object_id": "2000-040A",
        "meta_epoch": "2025-12-09T20:17:06.583776",
        "meta_mean_motion": 2.00567874,
        "meta_eccentricity": 0.0126172,
        "meta_inclination": 54.8914,
        "meta_ra_of_asc_node": 222.6841,
        "meta_arg_of_pericenter": 301.7549,
        "meta_mean_anomaly": 65.7518,
        "meta_ephemeris_type": 0,
        "meta_classification_type": "U",
        "meta_norad_cat_id": 26407,
        "meta_element_set_no": 999,
        "meta_rev_at_epoch": 18615,
        "meta_bstar": 0,
        "meta_mean_motion_dot": 2e-08,
        "meta_mean_motion_ddot": 0,
        "tle_line1": "1 26407U 00040A   25343.84521509  .00000002  00000+0  00000+0 0  9994",
        "tle_line2": "2 26407  54.8914 222.6841 0126172 301.7549  65.7518  2.00567874186157"
      },
      "geometry": {
        "type": "Point",
        "coordinates": [
          128.49798339932065,
          -54.82106362889233
        ]
      }
    },
    {
      "type": "Feature",
      "properties": {
        "norad_id": 27663,
        "name": "GPS BIIR-8  (PRN 16)",
        "group": "gps-ops",
        "lat": 34.65391859474663,
        "lon": -108.4764349638961,
        "alt_km": 19789.10740670455,
        "timestamp": "2025-12-10T04:57:29.876723+00:00",
        "meta_object_name": "GPS BIIR-8  (PRN 16)",
        "meta_object_id": "2003-005A",
        "meta_epoch": "2025-12-09T15:52:30.360000",
        "meta_mean_motion": 2.00571029,
        "meta_eccentricity": 0.0147333,
        "meta_inclination": 54.924,
        "meta_ra_of_asc_node": 222.5008,
        "meta_arg_of_pericenter": 51.758,
        "meta_mean_anomaly": 318.9168,
        "meta_ephemeris_type": 0,
        "meta_classification_type": "U",
        "meta_norad_cat_id": 27663,
        "meta_element_set_no": 999,
        "meta_rev_at_epoch": 16751,
        "meta_bstar": 0,
        "meta_mean_motion_dot": 3e-08,
        "meta_mean_motion_ddot": 0,
        "tle_line1": "1 27663U 03005A   25343.66146250  .00000003  00000+0  00000+0 0  9990",
        "tle_line2": "2 27663  54.9240 222.5008 0147333  51.7580 318.9168  2.00571029167518"
      },
      "geometry": {
        "type": "Point",
        "coordinates": [
          -108.4764349638961,
          34.65391859474663
        ]
      }
    },
    {
      "type": "Feature",
      "properties": {
        "norad_id": 28190,
        "name": "GPS BIIR-11 (PRN 19)",
        "group": "gps-ops",
        "lat": -19.38871949728332,
        "lon": 117.57084402115666,
        "alt_km": 19952.05678946046,
        "timestamp": "2025-12-10T04:57:29.876736+00:00",
        "meta_object_name": "GPS BIIR-11 (PRN 19)",
        "meta_object_id": "2004-009A",
        "meta_epoch": "2025-12-09T02:41:41.936352",
        "meta_mean_motion": 2.00560834,
        "meta_eccentricity": 0.01083049,
        "meta_inclination": 54.989,
        "meta_ra_of_asc_node": 283.3651,
        "meta_arg_of_pericenter": 167.5856,
        "meta_mean_anomaly": 325.415,
        "meta_ephemeris_type": 0,
        "meta_classification_type": "U",
        "meta_norad_cat_id": 28190,
        "meta_element_set_no": 999,
        "meta_rev_at_epoch": 15913,
        "meta_bstar": 0,
        "meta_mean_motion_dot": -5.3e-07,
        "meta_mean_motion_ddot": 0,
        "tle_line1": "1 28190U 04009A   25343.11229093 -.00000053  00000+0  00000+0 0  9994",
        "tle_line2": "2 28190  54.9890 283.3651 0108304 167.5856 325.4150  2.00560834159136"
      },
      "geometry": {
        "type": "Point",
        "coordinates": [
          117.57084402115666,
          -19.38871949728332
        ]
      }
    },
    {
      "type": "Feature",
      "properties": {
        "norad_id": 28474,
        "name": "GPS BIIR-13 (PRN 02)",
        "group": "gps-ops",
        "lat": -54.38811213920248,
        "lon": -131.73930434881078,
        "alt_km": 19875.44932500365,
        "timestamp": "2025-12-10T04:57:29.876748+00:00",
        "meta_object_name": "GPS BIIR-13 (PRN 02)",
        "meta_object_id": "2004-045A",
        "meta_epoch": "2025-12-09T12:22:18.068160",
        "meta_mean_motion": 2.00569281,
        "meta_eccentricity": 0.01706994,
        "meta_inclination": 55.2423,
        "meta_ra_of_asc_node": 332.5354,
        "meta_arg_of_pericenter": 309.1094,
        "meta_mean_anomaly": 175.0293,
        "meta_ephemeris_type": 0,
        "meta_classification_type": "U",
        "meta_norad_cat_id": 28474,
        "meta_element_set_no": 999,
        "meta_rev_at_epoch": 15462,
        "meta_bstar": 0,
        "meta_mean_motion_dot": -8.4e-07,
        "meta_mean_motion_ddot": 0,
        "tle_line1": "1 28474U 04045A   25343.51548690 -.00000084  00000+0  00000+0 0  9994",
        "tle_line2": "2 28474  55.2423 332.5354 0170699 309.1094 175.0293  2.00569281154629"
      },
      "geometry": {
        "type": "Point",
        "coordinates": [
          -131.73930434881078,
          -54.38811213920248
        ]
      }
    },
    {
      "type": "Feature",
      "properties": {
        "norad_id": 28874,
        "name": "GPS BIIRM-1 (PRN 17)",
        "group": "gps-ops",
        "lat": -32.2065554060974,
        "lon": 126.9077692971981,
        "alt_km": 20078.198373395677,
        "timestamp": "2025-12-10T04:57:29.876760+00:00",
        "meta_object_name": "GPS BIIRM-1 (PRN 17)",
        "meta_object_id": "2005-038A",
        "meta_epoch": "2025-12-09T01:52:55.801632",
        "meta_mean_motion": 2.0057855,
        "meta_eccentricity": 0.01317498,
        "meta_inclination": 55.0352,
        "meta_ra_of_asc_node": 280.8483,
        "meta_arg_of_pericenter": 293.4065,
        "meta_mean_anomaly": 193.8993,
        "meta_ephemeris_type": 0,
        "meta_classification_type": "U",
        "meta_norad_cat_id": 28874,
        "meta_element_set_no": 999,
        "meta_rev_at_epoch": 14802,
        "meta_bstar": 0,
        "meta_mean_motion_dot": -5e-07,
        "meta_mean_motion_ddot": 0,
        "tle_line1": "1 28874U 05038A   25343.07842363 -.00000050  00000+0  00000+0 0  9999",
        "tle_line2": "2 28874  55.0352 280.8483 0131749 293.4065 193.8993  2.00578550148027"
      },
      "geometry": {
        "type": "Point",
        "coordinates": [
          126.9077692971981,
          -32.2065554060974
        ]
      }
    }
  ]
}